From: horizons@ssd.jpl.nasa.gov (Horizons Ephemeris System)
Subject: [Horizons] SMALL BODY #C(500@10)_T(305P/Skiff) (1/1)
Date: March 1, 2021 at 1:23:07 PM PST

Automated mail xmit by MAIL_REQUEST, PID= 2301 Mon Mar  1 13:23:07 2021
++++++++++++++++++++++++++++++++ (part 1 of 1)  +++++++++++++++++++++++++++++++
*******************************************************************************
JPL/HORIZONS                     305P/Skiff                2021-Mar-01 13:23:06
Rec #:90001218 (+COV) Soln.date: 2016-Aug-16_16:14:25    # obs: 552 (2004-2015)

IAU76/J2000 helio. ecliptic osc. elements (au, days, deg., period=Julian yrs):

 EPOCH=  2455717.5 ! 2011-Jun-05.0000000 (TDB)    RMSW= n.a.
  EC= .6961317748629123   QR= 1.403996422371097   TP= 2456980.6451281747
  OM= 242.0209241571325   W= 144.8966784182669    IN= 11.5203604187501
  A= 4.620412093886077    MA= 234.6465597638855   ADIST= 7.836827765401056
  PER= 9.9318301144075    N= .09923914            ANGMOM= .026545703
  DAN= 5.53184            DDN= 1.51726            L= 27.4642765
  B= 6.5948172            MOID= .42767099         TP= 2014-Nov-19.1451281747

Comet physical (GM= km^3/s^2; RAD= km):
  GM= n.a.                RAD= n.a.
  M1=  14.2     M2=  18.7     k1=  17.    k2=  5.      PHCOF=  .030

COMET comments 
1: soln ref.= JPL#39, data arc: 2004-10-07 to 2015-03-09
2: k1=17., k2=5., phase coef.=0.03;
*******************************************************************************


*******************************************************************************
Ephemeris / MAIL_REQUEST Mon Mar  1 13:23:06 2021 Pasadena, USA  / Horizons
*******************************************************************************
Target body name: 305P/Skiff                      {source: JPL#39}
Center body name: Sun (10)                        {source: DE431}
Center-site name: BODY CENTER
*******************************************************************************
Start time      : A.D. 1990-Jan-01 00:00:00.0000 TDB
Stop  time      : A.D. 2020-Dec-31 00:00:00.0000 TDB
Step-size       : 10080 minutes
*******************************************************************************
Center geodetic : 0.00000000,0.00000000,0.0000000 {E-lon(deg),Lat(deg),Alt(km)}
Center cylindric: 0.00000000,0.00000000,0.0000000 {E-lon(deg),Dxy(km),Dz(km)}
Center radii    : 696000.0 x 696000.0 x 696000.0 k{Equator, meridian, pole}    
Small perturbers: Yes                             {source: SB431-N16}
Output units    : AU-D
Output type     : GEOMETRIC cartesian states
Output format   : 6 (LT, range, and range-rate)
Reference frame : Ecliptic of J2000.0
*******************************************************************************
Initial IAU76/J2000 heliocentric ecliptic osculating elements (au, days, deg.):
 EPOCH=  2455717.5 ! 2011-Jun-05.0000000 (TDB)    RMSW= n.a.                  
  EC= .6961317748629123   QR= 1.403996422371097   TP= 2456980.6451281747      
  OM= 242.0209241571325   W= 144.8966784182669    IN= 11.5203604187501        
 Equivalent ICRF heliocentric equatorial cartesian coordinates (au, au/d):
  X=-5.461903947558364E+00  Y=-4.238118612041112E+00  Z=-2.404082328472203E+00
 VX= 3.755454381837337E-03 VY=-1.636398090293014E-03 VZ= 1.764728209381624E-04
Comet physical (GM= km^3/s^2; RAD= km):                                        
  GM= n.a.                RAD= n.a.                                           
  M1=  14.2     M2=  18.7     k1=  17.    k2=  5.      PHCOF=  .030           
*******************************************************************************
           JDTDB,            Calendar Date (TDB),                     LT,                     RG,                     RR,
**************************************************************************************************************************
$$SOE
2448592.500000000, A.D. 1991-Dec-02 00:00:00.0000,  4.033392335983759E-02,  6.983602344450042E+00, -2.495743215690292E-03,
2448599.500000000, A.D. 1991-Dec-09 00:00:00.0000,  4.023245884391126E-02,  6.966034308110506E+00, -2.523713463325604E-03,
2448606.500000000, A.D. 1991-Dec-16 00:00:00.0000,  4.012986135132496E-02,  6.948270102943356E+00, -2.551792085573016E-03,
2448613.500000000, A.D. 1991-Dec-23 00:00:00.0000,  4.002612644077190E-02,  6.930308959960150E+00, -2.579981615233038E-03,
2448620.500000000, A.D. 1991-Dec-30 00:00:00.0000,  3.992124961202594E-02,  6.912150099970892E+00, -2.608282739016962E-03,
2448627.500000000, A.D. 1992-Jan-06 00:00:00.0000,  3.981522634054951E-02,  6.893792739576184E+00, -2.636696181048218E-03,
2448634.500000000, A.D. 1992-Jan-13 00:00:00.0000,  3.970805206288029E-02,  6.875236088637019E+00, -2.665223115016565E-03,
2448641.500000000, A.D. 1992-Jan-20 00:00:00.0000,  3.959972216299010E-02,  6.856479347912898E+00, -2.693864930458127E-03,
2448648.500000000, A.D. 1992-Jan-27 00:00:00.0000,  3.949023196716488E-02,  6.837521708175306E+00, -2.722623074800850E-03,
2448655.500000000, A.D. 1992-Feb-03 00:00:00.0000,  3.937957674327213E-02,  6.818362350080911E+00, -2.751498982000292E-03,
2448662.500000000, A.D. 1992-Feb-10 00:00:00.0000,  3.926775170231302E-02,  6.799000444440264E+00, -2.780494022329602E-03,
2448669.500000000, A.D. 1992-Feb-17 00:00:00.0000,  3.915475200219062E-02,  6.779435152870272E+00, -2.809609441817297E-03,
2448676.500000000, A.D. 1992-Feb-24 00:00:00.0000,  3.904057275335777E-02,  6.759665628772086E+00, -2.838846360520617E-03,
2448683.500000000, A.D. 1992-Mar-02 00:00:00.0000,  3.892520901691791E-02,  6.739691017002280E+00, -2.868206263936413E-03,
2448690.500000000, A.D. 1992-Mar-09 00:00:00.0000,  3.880865576489716E-02,  6.719510446994158E+00, -2.897692244347961E-03,
2448697.500000000, A.D. 1992-Mar-16 00:00:00.0000,  3.869090782015220E-02,  6.699123022353145E+00, -2.927308082964191E-03,
2448704.500000000, A.D. 1992-Mar-23 00:00:00.0000,  3.857195988944478E-02,  6.678527826583450E+00, -2.957055575410627E-03,
2448711.500000000, A.D. 1992-Mar-30 00:00:00.0000,  3.845180663265304E-02,  6.657723935071629E+00, -2.986935615614721E-03,
2448718.500000000, A.D. 1992-Apr-06 00:00:00.0000,  3.833044266519130E-02,  6.636710415505578E+00, -3.016949582569794E-03,
2448725.500000000, A.D. 1992-Apr-13 00:00:00.0000,  3.820786253633664E-02,  6.615486324121876E+00, -3.047099325874054E-03,
2448732.500000000, A.D. 1992-Apr-20 00:00:00.0000,  3.808406071509039E-02,  6.594050703257793E+00, -3.077386938155216E-03,
2448739.500000000, A.D. 1992-Apr-27 00:00:00.0000,  3.795903158317687E-02,  6.572402580139046E+00, -3.107814629958361E-03,
2448746.500000000, A.D. 1992-May-04 00:00:00.0000,  3.783276943181486E-02,  6.550540966320814E+00, -3.138384657031082E-03,
2448753.500000000, A.D. 1992-May-11 00:00:00.0000,  3.770526846131367E-02,  6.528464857617776E+00, -3.169099247047374E-03,
2448760.500000000, A.D. 1992-May-18 00:00:00.0000,  3.757652278392976E-02,  6.506173234598743E+00, -3.199960517533517E-03,
2448767.500000000, A.D. 1992-May-25 00:00:00.0000,  3.744652642788270E-02,  6.483665063281983E+00, -3.230970564526883E-03,
2448774.500000000, A.D. 1992-Jun-01 00:00:00.0000,  3.731527332422115E-02,  6.460939292861153E+00, -3.262132334626489E-03,
2448781.500000000, A.D. 1992-Jun-08 00:00:00.0000,  3.718275724831440E-02,  6.437994845574845E+00, -3.293450515606631E-03,
2448788.500000000, A.D. 1992-Jun-15 00:00:00.0000,  3.704897178682166E-02,  6.414830610987532E+00, -3.324929177409306E-03,
2448795.500000000, A.D. 1992-Jun-22 00:00:00.0000,  3.691391040599333E-02,  6.391445457815533E+00, -3.356570389136594E-03,
2448802.500000000, A.D. 1992-Jun-29 00:00:00.0000,  3.677756649813298E-02,  6.367838241971683E+00, -3.388376005083913E-03,
2448809.500000000, A.D. 1992-Jul-06 00:00:00.0000,  3.663993337110049E-02,  6.344007804747836E+00, -3.420348342194975E-03,
2448816.500000000, A.D. 1992-Jul-13 00:00:00.0000,  3.650100423288384E-02,  6.319952970143563E+00, -3.452489983251155E-03,
2448823.500000000, A.D. 1992-Jul-20 00:00:00.0000,  3.636077218504113E-02,  6.295672543730682E+00, -3.484803588504658E-03,
2448830.500000000, A.D. 1992-Jul-27 00:00:00.0000,  3.621923022175083E-02,  6.271165312488792E+00, -3.517291797599671E-03,
2448837.500000000, A.D. 1992-Aug-03 00:00:00.0000,  3.607637123203358E-02,  6.246430045189987E+00, -3.549957161623334E-03,
2448844.500000000, A.D. 1992-Aug-10 00:00:00.0000,  3.593218800484566E-02,  6.221465493280747E+00, -3.582802065292223E-03,
2448851.500000000, A.D. 1992-Aug-17 00:00:00.0000,  3.578667323724349E-02,  6.196270392295593E+00, -3.615828673252060E-03,
2448858.500000000, A.D. 1992-Aug-24 00:00:00.0000,  3.563981953912341E-02,  6.170843462677738E+00, -3.649039262347839E-03,
2448865.500000000, A.D. 1992-Aug-31 00:00:00.0000,  3.549161940547901E-02,  6.145183404975603E+00, -3.682437479224611E-03,
2448872.500000000, A.D. 1992-Sep-07 00:00:00.0000,  3.534206515187640E-02,  6.119288888670709E+00, -3.716028167979348E-03,
2448879.500000000, A.D. 1992-Sep-14 00:00:00.0000,  3.519114892535403E-02,  6.093158554064911E+00, -3.749814479778413E-03,
2448886.500000000, A.D. 1992-Sep-21 00:00:00.0000,  3.503886277962073E-02,  6.066791025300544E+00, -3.783798231665897E-03,
2448893.500000000, A.D. 1992-Sep-28 00:00:00.0000,  3.488519869181538E-02,  6.040184913262263E+00, -3.817981525174526E-03,
2448900.500000000, A.D. 1992-Oct-05 00:00:00.0000,  3.473014854399674E-02,  6.013338812372121E+00, -3.852366931086441E-03,
2448907.500000000, A.D. 1992-Oct-12 00:00:00.0000,  3.457370410830721E-02,  5.986251298020727E+00, -3.886957287022409E-03,
2448914.500000000, A.D. 1992-Oct-19 00:00:00.0000,  3.441585703904313E-02,  5.958920925194292E+00, -3.921755570833252E-03,
2448921.500000000, A.D. 1992-Oct-26 00:00:00.0000,  3.425659886847356E-02,  5.931346227750653E+00, -3.956764831389406E-03,
2448928.500000000, A.D. 1992-Nov-02 00:00:00.0000,  3.409592100525408E-02,  5.903525718144635E+00, -3.991988122011778E-03,
2448935.500000000, A.D. 1992-Nov-09 00:00:00.0000,  3.393381473599350E-02,  5.875457887699320E+00, -4.027428411977940E-03,
